[{"OBJECT_NAME":"PRAETORIAN SDA_620","OBJECT_ID":"2025-203U","EPOCH":"2026-03-09T12:58:55.594272","MEAN_MOTION":13.837055,"ECCENTRICITY":0.00087981,"INCLINATION":81.2996,"RA_OF_ASC_NODE":103.0097,"ARG_OF_PERICENTER":100.0422,"MEAN_ANOMALY":260.1727,"EPHEMERIS_TYPE":0,"CLASSIFICATION_TYPE":"U","NORAD_CAT_ID":65583,"ELEMENT_SET_NO":999,"REV_AT_EPOCH":2491,"BSTAR":0.00023467553,"MEAN_MOTION_DOT":2.71e-6,"MEAN_MOTION_DDOT":0},{"OBJECT_NAME":"SL-14 DEB","OBJECT_ID":"1987-068CP","EPOCH":"2026-03-08T13:15:11.331936","MEAN_MOTION":13.87069639,"ECCENTRICITY":0.0009222,"INCLINATION":82.5502,"RA_OF_ASC_NODE":350.2937,"ARG_OF_PERICENTER":314.5218,"MEAN_ANOMALY":163.9633,"EPHEMERIS_TYPE":0,"CLASSIFICATION_TYPE":"U","NORAD_CAT_ID":35520,"ELEMENT_SET_NO":999,"REV_AT_EPOCH":63168,"BSTAR":0.00021021793,"MEAN_MOTION_DOT":2.61e-6,"MEAN_MOTION_DDOT":0}]
